SPACEBEE-7              
1 43816U 18099BL  24158.41336268  .00016167  00000+0  96060-3 0  9996
2 43816  97.5487 222.2444 0008612 329.6940  30.3791 15.11340570300782
SPACEBEE-6              
1 43818U 18099BN  24158.44177257  .00038525  00000+0  16466-2 0  9995
2 43818  97.5418 227.4390 0006709 325.6252  34.4549 15.22726818301278
SPACEBEE-63             
1 47442U 21006AF  24158.16776511  .00825143  29187-3  23274-2 0  9997
2 47442  97.3156 224.1305 0010967 240.4861 119.5321 15.93409756187343
SPACEBEE-57             
1 47465U 21006BE  24158.43792448  .00618663  14901-3  21754-2 0  9995
2 47465  97.3116 223.1326 0009445 233.3854 126.6551 15.89089872187362
SPACEBEE-167            
1 55087U 23001CG  24158.14683337  .00071636  00000+0  15594-2 0  9994
2 55087  97.4210 223.4825 0010850 186.5410 173.5698 15.43978375 79327
SPACEBEE-163            
1 55089U 23001CJ  24158.16125468  .00117250  00000+0  18610-2 0  9999
2 55089  97.4137 224.9966 0009888 185.5232 174.5913 15.52894051 79430
SPACEBEE-164            
1 55091U 23001CL  24158.15996531  .00083377  00000+0  16563-2 0  9995
2 55091  97.4204 224.0476 0010909 184.8740 175.2405 15.46619414 79364
SPACEBEE-166            
1 55092U 23001CM  24158.16231050  .00108299  00000+0  18068-2 0  9998
2 55092  97.4171 225.1992 0011290 183.8153 176.3015 15.51515190 79444
SPACEBEE-165            
1 55094U 23001CP  24158.45304041  .00094312  00000+0  17693-2 0  9996
2 55094  97.4197 224.7039 0010427 182.0613 178.0596 15.48239608 79439
SPACEBEE-162            
1 55095U 23001CQ  24158.16130973  .00085455  00000+0  16723-2 0  9997
2 55095  97.4207 224.2002 0011005 183.2158 176.9022 15.47046536 79376
SPACEBEE-161            
1 55096U 23001CR  24158.43847418  .00089403  00000+0  17147-2 0  9995
2 55096  97.4206 224.5913 0010823 183.1789 176.9394 15.47616343 79423
SPACEBEE-160            
1 55097U 23001CS  24158.12574757  .00090309  00000+0  16907-2 0  9995
2 55097  97.4194 224.3780 0010916 184.3575 175.7582 15.48309312 79386
SPACEBEE-156            
1 55099U 23001CU  24158.14497395  .00092916  00000+0  17123-2 0  9998
2 55099  97.4195 224.5118 0010718 185.7500 174.3630 15.48754607 79390
SPACEBEE-158            
1 55100U 23001CV  24158.13258260  .00094175  00000+0  17342-2 0  9998
2 55100  97.4203 224.4398 0011242 185.3410 174.7723 15.48764784 79384
SPACEBEE-159            
1 55101U 23001CW  24158.15787169  .00117671  00000+0  19046-2 0  9996
2 55101  97.4176 225.2572 0011199 183.6869 176.4303 15.52331054 79442
SPACEBEE-157            
1 55102U 23001CX  24158.15567695  .00117819  00000+0  18987-2 0  9994
2 55102  97.4163 225.3188 0010684 184.3542 175.7619 15.52458540 79450
SPACEBEE-179            
1 56969U 23084AP  24158.31464891  .00051690  00000+0  15154-2 0  9996
2 56969  97.5380 280.0713 0007587  37.2139 322.9628 15.34992294 54674
SPACEBEE-177            
1 56972U 23084AS  24158.33117057  .00056042  00000+0  15442-2 0  9997
2 56972  97.5364 280.4984 0007157  32.3344 327.8337 15.36917083 54701
SPACEBEE-178            
1 56973U 23084AT  24158.27245418  .00051042  00000+0  14956-2 0  9998
2 56973  97.5405 280.0523 0007776  39.0565 321.1238 15.35011290 54665
SPACEBEE-176            
1 56975U 23084AV  24158.30726612  .00053744  00000+0  15375-2 0  9991
2 56975  97.5375 280.2433 0007705  35.9112 324.2647 15.35751627 54685
SPACEBEE-174            
1 56976U 23084AW  24158.32596306  .00052870  00000+0  14878-2 0  9995
2 56976  97.5381 280.3751 0007442  33.9251 326.2467 15.36273340 54692
SPACEBEE-173            
1 56978U 23084AY  24158.31014522  .00054886  00000+0  15373-2 0  9991
2 56978  97.5380 280.4023 0007394  34.4778 325.6944 15.36410425 54692
SPACEBEE-172            
1 56979U 23084AZ  24158.58669973  .00059197  00000+0  16544-2 0  9998
2 56979  97.5374 280.6235 0007558  34.6078 325.5656 15.36457247 54737
SPACEBEE-171            
1 56980U 23084BA  24158.29501305  .00055343  00000+0  15418-2 0  9990
2 56980  97.5373 280.4203 0007611  33.3719 326.8003 15.36574487 54690
SPACEBEE-169            
1 56982U 23084BC  24158.28673390  .00057486  00000+0  15897-2 0  9996
2 56982  97.5368 280.2201 0007538  33.3293 326.8424 15.36795100 54680
SPACEBEE-170            
1 56983U 23084BD  24158.28052952  .00060071  00000+0  17021-2 0  9997
2 56983  97.5412 280.3463 0007403  33.1040 327.0665 15.36023311 54689
SPACEBEE-168            
1 56984U 23084BE  24158.30898132  .00080027  00000+0  19024-2 0  9997
2 56984  97.5336 281.0199 0006167  19.1146 341.0331 15.41345304 54733
SPACEBEE-175            
1 56985U 23084BF  24158.30222433  .00056684  00000+0  15840-2 0  9997
2 56985  97.5394 280.4592 0008221  37.9548 322.2273 15.36467338 54692
